{
    "links": {
        "self": "http://www.neowsapp.com/rest/v1/neo/3836117?api_key=iIulBulltgU6a56xZRHN4H3l9WmuAYTsLGpBGhQ2"
    },
    "id": "3836117",
    "neo_reference_id": "3836117",
    "name": "(2018 VF5)",
    "designation": "2018 VF5",
    "nasa_jpl_url": "http://ssd.jpl.nasa.gov/sbdb.cgi?sstr=3836117",
    "absolute_magnitude_h": 27.6,
    "estimated_diameter": {
        "kilometers": {
            "estimated_diameter_min": 0.0080270317,
            "estimated_diameter_max": 0.0179489885
        },
        "meters": {
            "estimated_diameter_min": 8.0270316728,
            "estimated_diameter_max": 17.948988478
        },
        "miles": {
            "estimated_diameter_min": 0.0049877647,
            "estimated_diameter_max": 0.0111529809
        },
        "feet": {
            "estimated_diameter_min": 26.3354065935,
            "estimated_diameter_max": 58.8877593581
        }
    },
    "is_potentially_hazardous_asteroid": false,
    "close_approach_data": [
        {
            "close_approach_date": "1972-02-05",
            "close_approach_date_full": "1972-Feb-05 11:48",
            "epoch_date_close_approach": 66138480000,
            "relative_velocity": {
                "kilometers_per_second": "20.2350907673",
                "kilometers_per_hour": "72846.32676242",
                "miles_per_hour": "45263.8745374604"
            },
            "miss_distance": {
                "astronomical": "0.4613347288",
                "lunar": "179.4592095032",
                "kilometers": "69014692.785507656",
                "miles": "42883741.5513954128"
            },
            "orbiting_body": "Earth"
        },
        {
            "close_approach_date": "2018-11-13",
            "close_approach_date_full": "2018-Nov-13 16:00",
            "epoch_date_close_approach": 1542124800000,
            "relative_velocity": {
                "kilometers_per_second": "6.7939894506",
                "kilometers_per_hour": "24458.3620220187",
                "miles_per_hour": "15197.4750019593"
            },
            "miss_distance": {
                "astronomical": "0.0248092306",
                "lunar": "9.6507907034",
                "kilometers": "3711408.054098822",
                "miles": "2306162.0266628636"
            },
            "orbiting_body": "Earth"
        },
        {
            "close_approach_date": "2076-10-13",
            "close_approach_date_full": "2076-Oct-13 22:47",
            "epoch_date_close_approach": 3369854820000,
            "relative_velocity": {
                "kilometers_per_second": "16.1175523629",
                "kilometers_per_hour": "58023.1885065282",
                "miles_per_hour": "36053.3528806258"
            },
            "miss_distance": {
                "astronomical": "0.3214792671",
                "lunar": "125.0554349019",
                "kilometers": "48092613.607321077",
                "miles": "29883364.3855697826"
            },
            "orbiting_body": "Earth"
        }
    ],
    "orbital_data": {
        "orbit_id": "2",
        "orbit_determination_date": "2018-11-12 08:17:07",
        "first_observation_date": "2018-11-05",
        "last_observation_date": "2018-11-09",
        "data_arc_in_days": 4,
        "observations_used": 24,
        "orbit_uncertainty": "7",
        "minimum_orbit_intersection": ".0107622",
        "jupiter_tisserand_invariant": "4.088",
        "epoch_osculation": "2459000.5",
        "eccentricity": ".4231578804661114",
        "semi_major_axis": "1.704633546720748",
        "inclination": "2.950620029607915",
        "ascending_node_longitude": "231.0620249309469",
        "orbital_period": "812.9146931591089",
        "perihelion_distance": ".9833044281189662",
        "perihelion_argument": "204.8470082490174",
        "aphelion_distance": "2.42596266532253",
        "perihelion_time": "2459269.213996607921",
        "mean_anomaly": "240.9997659128082",
        "mean_motion": ".4428508957083625",
        "equinox": "J2000",
        "orbit_class": {
            "orbit_class_type": "APO",
            "orbit_class_description": "Near-Earth asteroid orbits which cross the Earth’s orbit similar to that of 1862 Apollo",
            "orbit_class_range": "a (semi-major axis) > 1.0 AU; q (perihelion) < 1.017 AU"
        }
    },
    "is_sentry_object": false
}